{
  "norad_id": "44349",
  "name": "FORMOSAT 7-1",
  "line1": "1 44349U 19036L   26170.71402264  .00002196  00000+0  16266-3 0  9996",
  "line2": "2 44349  23.9991  15.3581 0000595 182.6782 177.3716 14.96514586385035",
  "fetched_at": "2026-06-22T01:52:44.755833+00:00"
}